[{"OBJECT_NAME":"OBJECT C","OBJECT_ID":"2024-085C","EPOCH":"2026-03-09T22:49:58.289376","MEAN_MOTION":15.31893958,"ECCENTRICITY":0.00283931,"INCLINATION":97.3357,"RA_OF_ASC_NODE":145.6975,"ARG_OF_PERICENTER":37.3887,"MEAN_ANOMALY":322.9323,"EPHEMERIS_TYPE":0,"CLASSIFICATION_TYPE":"U","NORAD_CAT_ID":59679,"ELEMENT_SET_NO":999,"REV_AT_EPOCH":10244,"BSTAR":0.00039740634,"MEAN_MOTION_DOT":0.0001232,"MEAN_MOTION_DDOT":0},{"OBJECT_NAME":"STARLINK-35470","OBJECT_ID":"2025-259J","EPOCH":"2026-03-09T22:51:18.565344","MEAN_MOTION":15.27596823,"ECCENTRICITY":0.00014858,"INCLINATION":43.0046,"RA_OF_ASC_NODE":272.6763,"ARG_OF_PERICENTER":275.1198,"MEAN_ANOMALY":84.9484,"EPHEMERIS_TYPE":0,"CLASSIFICATION_TYPE":"U","NORAD_CAT_ID":66430,"ELEMENT_SET_NO":999,"REV_AT_EPOCH":1953,"BSTAR":0.001211249,"MEAN_MOTION_DOT":0.00033236,"MEAN_MOTION_DDOT":0}]
